OBJECT_NAME,OBJECT_ID,EPOCH,MEAN_MOTION,ECCENTRICITY,INCLINATION,RA_OF_ASC_NODE,ARG_OF_PERICENTER,MEAN_ANOMALY,EPHEMERIS_TYPE,CLASSIFICATION_TYPE,NORAD_CAT_ID,ELEMENT_SET_NO,REV_AT_EPOCH,BSTAR,MEAN_MOTION_DOT,MEAN_MOTION_DDOT
OSCAR 7 (AO-7),1974-089B,2026-07-12T00:45:44.725824,12.53698495,.0012659,101.9904,206.5372,84.2215,300.6320,0,U,7530,999,36363,.11623E-3,-.28E-6,0
PHASE 3B (AO-10),1983-058B,2026-07-09T16:55:32.549376,2.05870648,.60033527,25.9319,215.8523,121.8543,310.3469,0,U,14129,999,29595,0,.106E-5,0
UOSAT 2 (UO-11),1984-021B,2026-07-11T20:29:45.562848,14.90844080,.00091874,97.8073,158.1560,100.6765,259.5488,0,U,14781,999,26080,.9251145E-4,.855E-5,0
LUSAT (LO-19),1990-005G,2026-07-12T00:28:10.714080,14.34130163,.0012426,98.8847,215.5087,130.0695,230.1580,0,U,20442,999,90595,.34039E-4,.49E-6,0
EYESAT A (AO-27),1993-061C,2026-07-12T04:08:14.998848,14.30948567,.0008924,98.6869,260.5755,34.2140,325.9616,0,U,22825,999,71057,.2973E-4,.34E-6,0
ITAMSAT (IO-26),1993-061D,2026-07-12T03:27:51.858144,14.31376147,.0009149,98.6817,260.4674,18.0358,342.1148,0,U,22826,999,71088,.28178E-4,.3E-6,0
RADIO ROSTO (RS15),1994-085A,2026-07-12T05:09:35.421120,11.27583511,.01568,64.8161,262.7407,359.2580,0.8090,0,U,23439,999,29872,.49439E-3,-.25E-6,0
JAS-2 (FO-29),1996-046B,2026-07-12T00:06:50.099328,13.53275381,.0350496,98.5221,38.4749,32.2062,329.9970,0,U,24278,999,47652,.55356E-4,.2E-6,0
TECHSAT 1B (GO-32),1998-043D,2026-07-11T22:19:44.059584,14.24432954,.0002096,99.0082,186.3145,119.6916,240.4471,0,U,25397,999,45485,.28845E-4,.2E-6,0
ISS (ZARYA),1998-067A,2026-07-12T03:41:07.946016,15.48987212,.0006701,51.6303,176.5328,285.7692,74.2557,0,U,25544,999,57562,.96681E-4,.4878E-4,0
PCSAT (NO-44),2001-043C,2026-07-11T22:54:16.334208,14.31964242,.0005952,67.0492,180.2118,266.3271,93.7150,0,U,26931,999,29399,.48416E-4,.47E-6,0
SAUDISAT 1C (SO-50),2002-058C,2026-07-11T20:02:33.925632,14.83094671,.00746227,64.5517,52.7226,257.8961,101.3778,0,U,27607,999,26811,.65677356E-4,.404E-5,0
CUTE-1 (CO-55),2003-031E,2026-07-11T20:01:49.245600,14.24350218,.00107554,98.6741,201.0838,111.2957,248.9371,0,U,27844,999,19518,.88087823E-4,.16E-5,0
CUBESAT XI-IV (CO-57),2003-031J,2026-07-11T13:18:12.441888,14.23633286,.0010408,98.6772,200.4999,128.9651,231.2457,0,U,27848,999,19484,.76240362E-4,.13E-5,0
MOZHAETS 4 (RS22),2003-042A,2026-07-12T05:02:34.258272,14.73509400,.0010957,98.3477,18.2773,182.7603,282.5620,0,U,27939,999,21923,.16099E-4,.51E-6,0
CUBESAT XI-V,2005-043F,2026-07-11T09:17:30.194592,14.72696464,.00151315,98.3011,348.5214,126.3821,233.8784,0,U,28895,999,10531,.13420163E-3,.804E-5,0
CUTE-1.7+APD II (CO-65),2008-021C,2026-07-12T04:07:50.710080,15.09682301,.0007285,97.8286,175.1161,311.6931,48.3673,0,U,32785,999,98896,.19866E-3,.3133E-4,0
SEEDS II (CO-66),2008-021J,2026-07-11T13:05:02.149728,15.33584480,.00026852,97.7522,191.6211,165.1600,194.9721,0,U,32791,999,99102,.34002086E-3,.1096E-3,0
YUBILEINY (RS30),2008-025A,2026-07-12T04:58:58.412928,12.43180928,.001856,82.5053,339.8750,255.9543,103.9474,0,U,32953,999,82280,.5012E-3,.79E-6,0
KKS-1 (KISEKI),2009-002H,2026-07-12T03:37:36.151104,14.83184830,.0007173,98.1178,115.9889,199.3945,160.6996,0,U,33499,999,93989,.89727E-4,.677E-5,0
SWISSCUBE,2009-051B,2026-07-12T05:01:01.202880,14.62527427,.0007715,98.4012,101.5313,127.0520,233.1388,0,U,35932,999,89281,.10865E-3,.502E-5,0
BEESAT-1,2009-051C,2026-07-11T16:24:52.965504,14.61758535,.00059254,98.3940,100.5811,139.0777,221.0870,0,U,35933,999,89276,.93456424E-4,.417E-5,0
ITUPSAT1,2009-051E,2026-07-11T23:17:18.975264,14.60475983,.0007861,98.4023,100.0372,152.4089,207.7529,0,U,35935,999,89235,.90106E-4,.388E-5,0
XIWANG-1 (HOPE-1),2009-072B,2026-07-12T04:07:05.627424,13.16438625,.0007441,100.4028,146.6056,171.5395,188.5845,0,U,36122,999,79629,-.44482E-3,-.214E-5,0
O/OREOS (USA 219),2010-062C,2026-07-11T23:22:38.985312,14.93844125,.0013807,71.9695,24.1866,11.3955,348.7525,0,U,37224,999,12034,.11921E-3,.1204E-4,0
JUGNU,2011-058B,2026-07-12T01:41:53.186208,14.13782974,.0018468,19.9591,157.2468,351.9537,74.6963,0,U,37839,999,76255,.45779E-4,.355E-5,0
SRMSAT,2011-058D,2026-07-12T05:43:42.959424,14.11580711,.0011854,19.9714,267.8421,118.8974,271.3920,0,U,37841,999,76136,.45879E-4,.35E-5,0
STRAND-1,2013-009E,2026-07-11T23:31:54.290208,14.37177734,.0009239,98.3932,12.6059,149.9394,210.2325,0,U,39090,999,70062,.6646E-4,.155E-5,0
ZACUBE-1 (TSHEPISOSAT),2013-066B,2026-07-11T22:27:03.644640,15.01320163,.0043834,97.8011,155.3951,165.6614,194.5865,0,U,39417,999,68444,.11431E-3,.1437E-4,0
GOMX-1,2013-066Q,2026-07-12T04:12:27.291168,14.69538407,.0128571,97.6477,32.0614,357.9271,2.1386,0,U,39430,999,67358,.14265E-3,.908E-5,0
